IRIDIUM 33 DEB          
1 36083U 97051VQ  26086.46859255  .00001468  00000+0  42553-3 0  9998
2 36083  86.3479 349.0690 0024130 238.4257 121.4589 14.43679561869606
IRIDIUM 33 DEB          
1 36390U 97051VU  26072.23072221  .00007022  00000+0  10350-2 0  9990
2 36390  86.2884 257.8618 0028372 213.0455 146.8992 14.74947722675956
IRIDIUM 33 DEB          
1 36483U 97051VZ  26086.52674440  .00001673  00000+0  46158-3 0  9993
2 36483  86.3846   7.6228 0010373 130.0532 230.1582 14.46255051666602
IRIDIUM 33 DEB          
1 36490U 97051WG  26087.61586647  .00011189  00000+0  15018-2 0  9996
2 36490  86.3651 322.6032 0005276  60.9160 299.2589 14.79245271880487
IRIDIUM 33 DEB          
1 36493U 97051WK  26086.90107777  .00005366  00000+0  95464-3 0  9997
2 36493  86.3580 324.9128 0010980   3.6294 356.4997 14.66929483760590
IRIDIUM 33 DEB          
1 37548U 97051XH  26087.00643580  .00002856  00000+0  69616-3 0  9999
2 37548  86.3559 357.5324 0022831 195.1207 164.9319 14.52248893670591
IRIDIUM 33 DEB          
1 37550U 97051XK  26082.96629845  .00006928  00000+0  11773-2 0  9994
2 37550  86.3793 338.9631 0004873 101.6379 258.5383 14.69023595878180
IRIDIUM 33 DEB          
1 37562U 97051XX  26081.53109323  .00005460  00000+0  11883-2 0  9995
2 37562  86.3789   0.0548 0025538 124.1616  54.2204 14.57637636877813
IRIDIUM 33 DEB          
1 37565U 97051YA  26077.42051856  .00001578  00000+0  38480-3 0  9997
2 37565  86.3518 327.9028 0014522 114.7813 245.4906 14.52049588672257
IRIDIUM 33 DEB          
1 38017U 97051YD  26087.05314642  .00005350  00000+0  12458-2 0  9993
2 38017  86.3387 120.2970 0091155 114.6409 246.4325 14.52126300629291
IRIDIUM 33 DEB          
1 38022U 97051YJ  26083.94171006  .00003100  00000+0  92325-3 0  9991
2 38022  86.2708 331.6724 0046726  71.1033 289.5224 14.42198644706664
IRIDIUM 33 DEB          
1 38028U 97051YQ  26086.35459933  .00001398  00000+0  38049-3 0  9993
2 38028  86.3243 314.8019 0029358 131.9967 228.3743 14.46556855670076
IRIDIUM 33 DEB          
1 38228U 97051ZC  26084.04682363  .00000852  00000+0  33271-3 0  9990
2 38228  86.2998   4.9720 0062097 220.4027 157.5982 14.27483477862415
IRIDIUM 33 DEB          
1 38241U 97051ZR  26085.32979819  .00002323  00000+0  52754-3 0  9994
2 38241  86.3192 304.8842 0005162  73.7034 286.4741 14.55641502617072
IRIDIUM 33 DEB          
1 38474U 97051AAB 26085.40331594  .00001678  00000+0  41478-3 0  9996
2 38474  86.3441 324.8906 0027733  97.7647 262.6708 14.51277210668212
IRIDIUM 33 DEB          
1 39777U 97051AAJ 26086.06782087  .00011375  00000+0  23410-2 0  9993
2 39777  85.9598 124.3023 0059012 190.4211 169.5780 14.59350587617051
